NORAD_CAT_ID,OBJECT_NAME,OBJECT_TYPE,EPOCH,MEAN_MOTION,ECCENTRICITY,INCLINATION,RA_OF_ASC_NODE,ARG_OF_PERICENTER,MEAN_ANOMALY,BSTAR,MEAN_MOTION_DOT,MEAN_MOTION_DDOT,TLE_LINE0,TLE_LINE1,TLE_LINE2,SEMIMAJOR_AXIS,PERIOD,APOGEE,PERIGEE,DECAYED
52856.0,STARLINK-4201,PAYLOAD,2023-02-09 06:24:22,15.08853904,0.0001214,53.218,31.8466,106.5061,253.6065,0.0020518,0.0003253,0.0,0 STARLINK-4201,1 52856U 22062AC  23040.26692878  .00032530  00000-0  20518-2 0  9996,2 52856  53.2180  31.8466 0001214 106.5061 253.6065 15.08853904 36663,6917.838,95.437,540.543,538.863,0.0
52856.0,STARLINK-4201,PAYLOAD,2023-02-09 11:10:31,15.08868875,0.0001265,53.2181,30.955,111.1088,249.0039,0.002624,0.00041754,0.0,0 STARLINK-4201,1 52856U 22062AC  23040.46564668  .00041754  00000-0  26240-2 0  9999,2 52856  53.2181  30.9550 0001265 111.1088 249.0039 15.08868875 36208,6917.792,95.436,540.532,538.782,0.0
52856.0,STARLINK-4201,PAYLOAD,2023-02-09 23:53:37,15.08833223,0.0002098,53.2178,28.5765,114.8123,245.3088,0.0020858,0.00033058,0.0,0 STARLINK-4201,1 52856U 22062AC  23040.99557614  .00033058  00000-0  20858-2 0  9997,2 52856  53.2178  28.5765 0002098 114.8123 245.3088 15.08833223 36774,6917.901,95.438,541.217,538.315,0.0
52856.0,STARLINK-4201,PAYLOAD,2023-02-10 09:25:56,15.08857134,0.0001325,53.2195,26.7935,94.2832,265.8312,0.0022629,0.00035927,0.0,0 STARLINK-4201,1 52856U 22062AC  23041.39301472  .00035927  00000-0  22629-2 0  9996,2 52856  53.2195  26.7935 0001325  94.2832 265.8312 15.08857134 36349,6917.828,95.436,540.61,538.776,0.0
52856.0,STARLINK-4201,PAYLOAD,2023-02-11 10:52:05,15.08884534,0.0001351,53.2175,22.0347,105.4632,254.651,0.0020452,0.00032451,0.0,0 STARLINK-4201,1 52856U 22062AC  23042.45284581  .00032451  00000-0  20452-2 0  9996,2 52856  53.2175  22.0347 0001351 105.4632 254.6510 15.08884534 36996,6917.744,95.435,540.544,538.675,0.0
52856.0,STARLINK-4201,PAYLOAD,2023-02-11 15:38:16,15.08844544,0.0002643,53.2181,21.1425,75.2441,284.8844,0.00025577,3.785e-05,0.0,0 STARLINK-4201,1 52856U 22062AC  23042.65157546  .00003785  00000-0  25577-3 0  9990,2 52856  53.2181  21.1425 0002643  75.2441 284.8844 15.08844544 37024,6917.866,95.437,541.56,537.903,0.0
52856.0,STARLINK-4201,PAYLOAD,2023-02-12 07:32:07,15.08847192,0.000324,53.2181,18.169,75.4031,284.732,0.0013327,0.00020991,0.0,0 STARLINK-4201,1 52856U 22062AC  23043.31397859  .00020991  00000-0  13327-2 0  9994,2 52856  53.2181  18.1690 0003240  75.4031 284.7320 15.08847192 36631,6917.858,95.437,541.965,537.482,0.0
52856.0,STARLINK-4201,PAYLOAD,2023-02-12 21:50:35,15.0884489,0.0002153,53.2181,15.4919,89.0045,271.1193,0.00085652,0.00013372,0.0,0 STARLINK-4201,1 52856U 22062AC  23043.91013841  .00013372  00000-0  85652-3 0  9992,2 52856  53.2181  15.4919 0002153  89.0045 271.1193 15.08844890 37218,6917.865,95.437,541.22,538.241,0.0
52856.0,STARLINK-4201,PAYLOAD,2023-02-13 07:22:54,15.08850136,0.0001731,53.2162,13.7101,86.9501,273.169,0.0012257,0.00019278,0.0,0 STARLINK-4201,1 52856U 22062AC  23044.30757606  .00019278  00000-0  12257-2 0  9991,2 52856  53.2162  13.7101 0001731  86.9501 273.1690 15.08850136 36780,6917.849,95.437,540.912,538.517,0.0
52856.0,STARLINK-4201,PAYLOAD,2023-02-13 15:19:50,15.08831373,0.0002456,53.2169,12.2222,85.1014,275.0258,0.00031002,4.648e-05,0.0,0 STARLINK-4201,1 52856U 22062AC  23044.63878385  .00004648  00000-0  31002-3 0  9990,2 52856  53.2169  12.2222 0002456  85.1014 275.0258 15.08831373 37324,6917.907,95.438,541.471,538.073,0.0
52856.0,STARLINK-4201,PAYLOAD,2023-02-14 04:02:55,15.0886121,0.0001301,53.2195,9.8427,94.5187,265.5954,0.0013075,0.00020594,0.0,0 STARLINK-4201,1 52856U 22062AC  23045.16869754  .00020594  00000-0  13075-2 0  9996,2 52856  53.2195   9.8427 0001301  94.5187 265.5954 15.08861210 37404,6917.816,95.436,540.581,538.781,0.0
52856.0,STARLINK-4201,PAYLOAD,2023-02-14 07:13:41,15.088619,0.0001347,53.2186,9.2486,89.7236,270.391,0.0018469,0.00029245,0.0,0 STARLINK-4201,1 52856U 22062AC  23045.30117772  .00029245  00000-0  18469-2 0  9992,2 52856  53.2186   9.2486 0001347  89.7236 270.3910 15.08861900 36933,6917.813,95.436,540.61,538.747,0.0
52856.0,STARLINK-4201,PAYLOAD,2023-02-15 03:53:42,15.08853187,0.0001058,53.2185,5.3824,103.4085,256.7025,0.0018124,0.00028684,0.0,0 STARLINK-4201,1 52856U 22062AC  23046.16230222  .00028684  00000-0  18124-2 0  9997,2 52856  53.2185   5.3824 0001058 103.4085 256.7025 15.08853187 37552,6917.84,95.437,540.437,538.973,0.0
52856.0,STARLINK-4201,PAYLOAD,2023-02-15 21:22:57,15.08860585,0.000141,53.2184,2.1121,101.7675,258.3476,0.0010899,0.0001711,0.0,0 STARLINK-4201,1 52856U 22062AC  23046.89093923  .00017110  00000-0  10899-2 0  9995,2 52856  53.2184   2.1121 0001410 101.7675 258.3476 15.08860585 37664,6917.817,95.436,540.658,538.707,0.0
52856.0,STARLINK-4201,PAYLOAD,2023-02-16 06:55:14,15.08896538,0.0001067,53.2177,0.3261,103.3614,256.7497,0.0020138,0.00031957,0.0,0 STARLINK-4201,1 52856U 22062AC  23047.28836658  .00031957  00000-0  20138-2 0  9991,2 52856  53.2177   0.3261 0001067 103.3614 256.7497 15.08896538 37729,6917.708,95.434,540.311,538.834,0.0
52856.0,STARLINK-4201,PAYLOAD,2023-02-16 13:16:46,15.08915799,0.000101,53.2177,359.1362,105.2309,254.8795,0.0020395,0.00032388,0.0,0 STARLINK-4201,1 52856U 22062AC  23047.55331442  .00032388  00000-0  20395-2 0  9996,2 52856  53.2177 359.1362 0001010 105.2309 254.8795 15.08915799 37277,6917.649,95.433,540.212,538.815,0.0
52856.0,STARLINK-4201,PAYLOAD,2023-02-17 06:46:03,15.08826398,0.0001554,53.2188,355.8672,81.4141,278.7027,0.0001951,2.817e-05,0.0,0 STARLINK-4201,1 52856U 22062AC  23048.28198587  .00002817  00000-0  19510-3 0  9990,2 52856  53.2188 355.8672 0001554  81.4141 278.7027 15.08826398 37873,6917.922,95.438,540.862,538.712,0.0
52856.0,STARLINK-4201,PAYLOAD,2023-02-17 08:21:26,15.08834697,0.0001522,53.2182,355.5706,83.7416,276.3749,0.00048301,7.406e-05,0.0,0 STARLINK-4201,1 52856U 22062AC  23048.34822450  .00007406  00000-0  48301-3 0  9999,2 52856  53.2182 355.5706 0001522  83.7416 276.3749 15.08834697 37390,6917.897,95.438,540.815,538.709,0.0
52856.0,STARLINK-4201,PAYLOAD,2023-02-18 05:01:29,15.088198,0.0001787,53.2186,351.704,76.1642,283.9549,0.00050464,7.748e-05,0.0,0 STARLINK-4201,1 52856U 22062AC  23049.20936357  .00007748  00000-0  50464-3 0  9999,2 52856  53.2186 351.7040 0001787  76.1642 283.9549 15.08819800 38014,6917.942,95.439,541.043,538.571,0.0
52856.0,STARLINK-4201,PAYLOAD,2023-02-18 06:36:51,15.08834348,0.0001753,53.2194,351.401,88.077,272.0422,0.00092797,0.00014509,0.0,0 STARLINK-4201,1 52856U 22062AC  23049.27559981  .00014509  00000-0  92797-3 0  9998,2 52856  53.2194 351.4010 0001753  88.0770 272.0422 15.08834348 38028,6917.898,95.438,540.975,538.55,0.0
52856.0,STARLINK-4201,PAYLOAD,2023-02-18 12:58:24,15.08854961,0.0001921,53.2195,350.2144,80.7686,279.3523,0.0015301,0.00024158,0.0,0 STARLINK-4201,1 52856U 22062AC  23049.54055905  .00024158  00000-0  15301-2 0  9991,2 52856  53.2195 350.2144 0001921  80.7686 279.3523 15.08854961 37570,6917.835,95.437,541.029,538.371,0.0
52856.0,STARLINK-4201,PAYLOAD,2023-02-19 12:49:10,15.08858548,0.0002073,53.2209,345.7545,81.7634,278.3593,0.00044672,6.832e-05,0.0,0 STARLINK-4201,1 52856U 22062AC  23050.53415145  .00006832  00000-0  44672-3 0  9991,2 52856  53.2209 345.7545 0002073  81.7634 278.3593 15.08858548 38216,6917.824,95.436,541.123,538.255,0.0
52856.0,STARLINK-4201,PAYLOAD,2023-02-20 12:39:57,15.08844862,0.0001705,53.2199,341.2951,78.9457,281.1727,3.2126e-05,2.23e-06,0.0,0 STARLINK-4201,1 52856U 22062AC  23051.52774875  .00000223  00000-0  32126-4 0  9999,2 52856  53.2199 341.2951 0001705  78.9457 281.1727 15.08844862 38369,6917.866,95.437,540.91,538.551,0.0
52856.0,STARLINK-4201,PAYLOAD,2023-02-21 12:30:44,15.08849327,0.0001721,53.2186,336.8362,77.0133,283.1051,0.00036441,5.518e-05,0.0,0 STARLINK-4201,1 52856U 22062AC  23052.52134860  .00005518  00000-0  36441-3 0  9999,2 52856  53.2186 336.8362 0001721  77.0133 283.1051 15.08849327 38026,6917.852,95.437,540.907,538.526,0.0
52856.0,STARLINK-4201,PAYLOAD,2023-02-22 02:49:11,15.08873048,0.0001511,53.2179,334.159,84.5105,275.6059,0.00093969,0.00014712,0.0,0 STARLINK-4201,1 52856U 22062AC  23053.11749772  .00014712  00000-0  93969-3 0  9993,2 52856  53.2179 334.1590 0001511  84.5105 275.6059 15.08873048 38606,6917.779,95.435,540.69,538.599,0.0
52856.0,STARLINK-4201,PAYLOAD,2023-02-22 04:24:34,15.08881263,0.0001438,53.2183,333.8634,83.9076,276.208,0.0011398,0.00017919,0.0,0 STARLINK-4201,1 52856U 22062AC  23053.18373538  .00017919  00000-0  11398-2 0  9990,2 52856  53.2183 333.8634 0001438  83.9076 276.2080 15.08881263 38120,6917.754,95.435,540.614,538.624,0.0
52856.0,STARLINK-4201,PAYLOAD,2023-02-22 18:43:03,15.08830693,0.0001439,53.2181,331.1875,99.3034,260.8121,-0.00039654,-6.592e-05,0.0,0 STARLINK-4201,1 52856U 22062AC  23053.77990650 -.00006592  00000-0 -39654-3 0  9998,2 52856  53.2181 331.1875 0001439  99.3034 260.8121 15.08830693 38702,6917.909,95.438,540.769,538.778,0.0
52856.0,STARLINK-4201,PAYLOAD,2023-02-22 21:53:50,15.08827808,0.0001328,53.2187,330.5914,111.7944,248.319,-0.00022957,-3.938e-05,0.0,0 STARLINK-4201,1 52856U 22062AC  23053.91238763 -.00003938  00000-0 -22957-3 0  9993,2 52856  53.2187 330.5914 0001328 111.7944 248.3190 15.08827808 38230,6917.918,95.438,540.701,538.864,0.0
52856.0,STARLINK-4201,PAYLOAD,2023-02-23 05:50:46,15.08834076,8.8e-05,53.2183,329.1065,99.8596,260.2496,0.0015315,0.00024166,0.0,0 STARLINK-4201,1 52856U 22062AC  23054.24359344  .00024166  00000-0  15315-2 0  9992,2 52856  53.2183 329.1065 0000880  99.8596 260.2496 15.08834076 38774,6917.898,95.438,540.372,539.155,0.0
52856.0,STARLINK-4201,PAYLOAD,2023-02-23 20:09:14,15.08855654,8.95e-05,53.2182,326.4302,103.9982,256.1109,0.0012738,0.00020051,0.0,0 STARLINK-4201,1 52856U 22062AC  23054.83975172  .00020051  00000-0  12738-2 0  9995,2 52856  53.2182 326.4302 0000895 103.9982 256.1109 15.08855654 38375,6917.833,95.437,540.317,539.078,0.0
